[Satellite]
VERSION=1.1
NAME=RS3S
NICKNAME=RS3S
TLE1=1 53308U 98067TT  22342.55607925  .00142845  00000+0  11485-2 0  9995
TLE2=2 53308  51.6333 184.9328 0007920 185.2092 174.8824 15.69955026 21872
STATUS=0
